[{"OBJECT_NAME":"GAOFEN-11 03","OBJECT_ID":"2021-107A","EPOCH":"2026-03-09T22:48:17.334432","MEAN_MOTION":15.23762465,"ECCENTRICITY":0.00095153,"INCLINATION":97.2228,"RA_OF_ASC_NODE":116.8716,"ARG_OF_PERICENTER":54.6956,"MEAN_ANOMALY":305.517,"EPHEMERIS_TYPE":0,"CLASSIFICATION_TYPE":"U","NORAD_CAT_ID":49492,"ELEMENT_SET_NO":999,"REV_AT_EPOCH":23952,"BSTAR":0.00031083054,"MEAN_MOTION_DOT":7.418e-5,"MEAN_MOTION_DDOT":0},{"OBJECT_NAME":"STARLINK-30215","OBJECT_ID":"2023-105R","EPOCH":"2026-03-09T22:00:01.999584","MEAN_MOTION":15.21884858,"ECCENTRICITY":0.00010316,"INCLINATION":42.9992,"RA_OF_ASC_NODE":258.6075,"ARG_OF_PERICENTER":307.4613,"MEAN_ANOMALY":139.0312,"EPHEMERIS_TYPE":0,"CLASSIFICATION_TYPE":"U","NORAD_CAT_ID":57445,"ELEMENT_SET_NO":999,"REV_AT_EPOCH":578,"BSTAR":0.0053865498,"MEAN_MOTION_DOT":0.00126903,"MEAN_MOTION_DDOT":0}]
